COSMOS 2419 (714)       
1 28915U 05050A   16237.33171649  .00000005  00000-0  00000+0 0  9992
2 28915  65.3525  75.8624 0015344 357.8096 220.2763  2.13111041 83007
COSMOS 2425 (716)       
1 29670U 06062A   16237.39924620 -.00000043  00000-0  10000-3 0  9994
2 29670  65.6015 314.8624 0019745 343.5454 342.4412  2.13105060 75203
COSMOS 2426 (717)       
1 29671U 06062B   16236.72716473 -.00000038  00000-0  10000-3 0  9990
2 29671  65.6193 314.9684 0018737 167.3603 223.4413  2.13103050 75202
COSMOS 2424 (715)       
1 29672U 06062C   16236.48619003 -.00000036  00000-0  10000-3 0  9993
2 29672  65.6041 314.9037 0018228 166.1609 215.9449  2.13102481 75195
COSMOS 2433 (720)       
1 32275U 07052A   16237.19243966  .00000005  00000-0  10000-3 0  9991
2 32275  65.3683  75.6402 0000579 250.5325 108.8689  2.13104824 68716
COSMOS 2432 (719)       
1 32276U 07052B   16236.99104449  .00000004  00000-0  10000-3 0  9990
2 32276  65.3809  75.7152 0010994 346.7093 171.8645  2.13104229 68713
COSMOS 2434 (721)       
1 32393U 07065A   16236.49510791 -.00000036  00000-0  00000+0 0  9991
2 32393  65.2199 314.1838 0004627 133.3109 302.6627  2.13103033 67411
COSMOS 2436 (723)       
1 32395U 07065C   16236.59978160 -.00000037  00000-0  10000-3 0  9998
2 32395  65.2334 314.2242 0015136 351.8713 256.4254  2.13103000 67347
COSMOS 2443 (725)       
1 33379U 08046B   16236.90382226  .00000004  00000-0  10000-3 0  9991
2 33379  65.2984  75.0595 0016952 180.1535 222.0545  2.13101080 61584
COSMOS 2456 (730)       
1 36111U 09070A   16237.07530369  .00000055  00000-0  00000+0 0  9999
2 36111  64.1831 193.7400 0006156 298.4688  32.4652  2.13103027 52080
COSMOS 2457 (733)       
1 36112U 09070B   16236.73959131  .00000057  00000-0  00000+0 0  9996
2 36112  64.1656 193.6767 0006713 187.3206  16.0041  2.13101775 52080
COSMOS 2458 (734)       
1 36113U 09070C   16237.11090069  .00000055  00000-0  10000-3 0  9999
2 36113  64.1709 193.6693 0002428 295.5964 240.1973  2.13102038 52098
COSMOS 2459 (731)       
1 36400U 10007A   16236.65656900  .00000004  00000-0  10000-3 0  9994
2 36400  65.2766  74.8009 0027833 357.1758 175.8986  2.13102370 50439
COSMOS 2461 (735)       
1 36401U 10007B   16236.55040229  .00000004  00000-0  10000-3 0  9995
2 36401  65.2679  74.7854 0008384  74.5218 287.6955  2.13102429 50434
COSMOS 2460 (732)       
1 36402U 10007C   16237.11099579  .00000004  00000-0  10000-3 0  9991
2 36402  65.2588  74.7421 0002123  85.1412  28.8745  2.13101898 50445
COSMOS 2465 (737)       
1 37138U 10041B   16237.14340293 -.00000041  00000-0  00000+0 0  9998
2 37138  64.8191 314.3014 0036926 172.9326  83.4184  2.13103419 46513
COSMOS 2464 (736)       
1 37139U 10041C   16237.49694319 -.00000043  00000-0  00000+0 0  9990
2 37139  64.8260 314.2847 0020819  11.7734 340.4753  2.13102799 46520
COSMOS 2471 (701K)      
1 37372U 11009A   16236.74367927  .00000004  00000-0  00000-0 0  9990
2 37372  65.2550  74.7035 0006575 226.3943  98.6431  2.13102857 42708
COSMOS 2474 (742)       
1 37829U 11055A   16237.45878185  .00000053  00000-0  00000+0 0  9993
2 37829  64.5078 194.1674 0010396 254.1817 232.0606  2.13102021 38091
COSMOS 2476 (744)       
1 37867U 11064A   16237.19185682  .00000055  00000-0  00000+0 0  9991
2 37867  64.4876 194.2558 0019365 248.0698  79.2582  2.13102096 37437
COSMOS 2477 (745)       
1 37868U 11064B   16237.18355895  .00000056  00000-0  00000+0 0  9997
2 37868  64.4965 194.2966 0017351 249.4843 250.7489  2.13101980 37398
COSMOS 2475 (743)       
1 37869U 11064C   16237.41176465  .00000054  00000-0  00000+0 0  9996
2 37869  64.5033 194.2775 0022611 273.4652 358.0183  2.13102249 37408
COSMOS 2485 (747)       
1 39155U 13019A   16237.34702071  .00000055  00000-0  00000+0 0  9999
2 39155  64.6571 194.2161 0019588 243.1075 248.3681  2.13102158 25913
COSMOS 2492 (754)       
1 39620U 14012A   16237.32950684  .00000010  00000-0  12946+2 0  9998
2 39620  65.1487  74.7129 0014454 339.9444 171.5163  2.13103667 18863
COSMOS 2500 (755)       
1 40001U 14032A   16236.89695837  .00000004  00000-0  00000+0 0  9991
2 40001  65.0895  74.7482 0005328 186.5018 216.7617  2.13103053 17072
COSMOS 2501 (702K)      
1 40315U 14075A   16237.00195823 -.00000043  00000-0  00000+0 0  9994
2 40315  64.5919 315.7380 0018492 231.4244  53.3143  2.13101810 13471
COSMOS 2514 (751)       
1 41330U 16008A   16237.22968201  .00000003  00000-0  00000+0 0  9997
2 41330  64.8889  74.9549 0008073 204.2367 273.4904  2.13103617  4249
COSMOS 2516 (753)       
1 41554U 16032A   16237.30919689 -.00000044  00000-0  00000+0 0  9993
2 41554  64.7729 315.4190 0012946 219.5553 213.5908  2.13101625  1854
